{
  "type": "FeatureCollection",
  "features": [
    {
      "type": "Feature",
      "properties": {
        "norad_id": 34299,
        "name": "COSMOS 2251 DEB",
        "group": "cosmos-2251-debris",
        "lat": -26.549058769634225,
        "lon": -37.99600933401825,
        "alt_km": 342.601724297484,
        "timestamp": "2025-12-14T14:39:29.763018+00:00",
        "meta_object_name": "COSMOS 2251 DEB",
        "meta_object_id": "1993-036MV",
        "meta_epoch": "2025-12-13T23:32:47.207616",
        "meta_mean_motion": 15.75995255,
        "meta_eccentricity": 0.00178262,
        "meta_inclination": 73.9754,
        "meta_ra_of_asc_node": 331.7028,
        "meta_arg_of_pericenter": 60.4625,
        "meta_mean_anomaly": 299.8376,
        "meta_ephemeris_type": 0,
        "meta_classification_type": "U",
        "meta_norad_cat_id": 34299,
        "meta_element_set_no": 999,
        "meta_rev_at_epoch": 89030,
        "meta_bstar": 0.0065560052,
        "meta_mean_motion_dot": 0.01146987,
        "meta_mean_motion_ddot": 0,
        "tle_line1": "1 34299U 93036MV  25347.98110194  .01146987  00000+0  65560-2 0  9991",
        "tle_line2": "2 34299  73.9754 331.7028 0017826  60.4625 299.8376 15.75995255890302"
      },
      "geometry": {
        "type": "Point",
        "coordinates": [
          -37.99600933401825,
          -26.549058769634225
        ]
      }
    },
    {
      "type": "Feature",
      "properties": {
        "norad_id": 34301,
        "name": "COSMOS 2251 DEB",
        "group": "cosmos-2251-debris",
        "lat": 40.97658664372156,
        "lon": -31.44289622806908,
        "alt_km": 610.5798188320277,
        "timestamp": "2025-12-14T14:39:29.763028+00:00",
        "meta_object_name": "COSMOS 2251 DEB",
        "meta_object_id": "1993-036MX",
        "meta_epoch": "2025-12-13T22:33:15.303744",
        "meta_mean_motion": 14.84632645,
        "meta_eccentricity": 0.00112397,
        "meta_inclination": 74.0051,
        "meta_ra_of_asc_node": 164.3172,
        "meta_arg_of_pericenter": 225.161,
        "meta_mean_anomaly": 287.0488,
        "meta_ephemeris_type": 0,
        "meta_classification_type": "U",
        "meta_norad_cat_id": 34301,
        "meta_element_set_no": 999,
        "meta_rev_at_epoch": 88418,
        "meta_bstar": 0.0032969768,
        "meta_mean_motion_dot": 0.00027988,
        "meta_mean_motion_ddot": 0,
        "tle_line1": "1 34301U 93036MX  25347.93976046  .00027988  00000+0  32970-2 0  9993",
        "tle_line2": "2 34301  74.0051 164.3172 0011239 225.1610 287.0488 14.84632645884186"
      },
      "geometry": {
        "type": "Point",
        "coordinates": [
          -31.44289622806908,
          40.97658664372156
        ]
      }
    },
    {
      "type": "Feature",
      "properties": {
        "norad_id": 34302,
        "name": "COSMOS 2251 DEB",
        "group": "cosmos-2251-debris",
        "lat": -71.19319315297062,
        "lon": 63.78486334850655,
        "alt_km": 734.7075095778728,
        "timestamp": "2025-12-14T14:39:29.763038+00:00",
        "meta_object_name": "COSMOS 2251 DEB",
        "meta_object_id": "1993-036MY",
        "meta_epoch": "2025-12-13T19:42:20.129184",
        "meta_mean_motion": 14.39337101,
        "meta_eccentricity": 0.00788197,
        "meta_inclination": 74.1781,
        "meta_ra_of_asc_node": 121.6015,
        "meta_arg_of_pericenter": 336.5439,
        "meta_mean_anomaly": 174.2651,
        "meta_ephemeris_type": 0,
        "meta_classification_type": "U",
        "meta_norad_cat_id": 34302,
        "meta_element_set_no": 999,
        "meta_rev_at_epoch": 87736,
        "meta_bstar": 0.00082504909,
        "meta_mean_motion_dot": 2.633e-05,
        "meta_mean_motion_ddot": 0,
        "tle_line1": "1 34302U 93036MY  25347.82106631  .00002633  00000+0  82505-3 0  9997",
        "tle_line2": "2 34302  74.1781 121.6015 0078819 336.5439 174.2651 14.39337101877363"
      },
      "geometry": {
        "type": "Point",
        "coordinates": [
          63.78486334850655,
          -71.19319315297062
        ]
      }
    },
    {
      "type": "Feature",
      "properties": {
        "norad_id": 34303,
        "name": "COSMOS 2251 DEB",
        "group": "cosmos-2251-debris",
        "lat": -25.067375389171094,
        "lon": 112.20554644157401,
        "alt_km": 792.9301569241215,
        "timestamp": "2025-12-14T14:39:29.763048+00:00",
        "meta_object_name": "COSMOS 2251 DEB",
        "meta_object_id": "1993-036MZ",
        "meta_epoch": "2025-12-13T21:28:07.699584",
        "meta_mean_motion": 14.54475192,
        "meta_eccentricity": 0.01350416,
        "meta_inclination": 74.0053,
        "meta_ra_of_asc_node": 285.8524,
        "meta_arg_of_pericenter": 63.923,
        "meta_mean_anomaly": 352.466,
        "meta_ephemeris_type": 0,
        "meta_classification_type": "U",
        "meta_norad_cat_id": 34303,
        "meta_element_set_no": 999,
        "meta_rev_at_epoch": 87979,
        "meta_bstar": 0.0016981145,
        "meta_mean_motion_dot": 8.148e-05,
        "meta_mean_motion_ddot": 0,
        "tle_line1": "1 34303U 93036MZ  25347.89453356  .00008148  00000+0  16981-2 0  9995",
        "tle_line2": "2 34303  74.0053 285.8524 0135041  63.9230 352.4660 14.54475192879793"
      },
      "geometry": {
        "type": "Point",
        "coordinates": [
          112.20554644157401,
          -25.067375389171094
        ]
      }
    },
    {
      "type": "Feature",
      "properties": {
        "norad_id": 34304,
        "name": "COSMOS 2251 DEB",
        "group": "cosmos-2251-debris",
        "lat": -22.860478596768353,
        "lon": -53.913714308735706,
        "alt_km": 714.1174234003147,
        "timestamp": "2025-12-14T14:39:29.763058+00:00",
        "meta_object_name": "COSMOS 2251 DEB",
        "meta_object_id": "1993-036NA",
        "meta_epoch": "2025-12-13T19:56:03.653376",
        "meta_mean_motion": 14.37874626,
        "meta_eccentricity": 0.0128927,
        "meta_inclination": 74.013,
        "meta_ra_of_asc_node": 120.5826,
        "meta_arg_of_pericenter": 258.1498,
        "meta_mean_anomaly": 229.9614,
        "meta_ephemeris_type": 0,
        "meta_classification_type": "U",
        "meta_norad_cat_id": 34304,
        "meta_element_set_no": 999,
        "meta_rev_at_epoch": 87312,
        "meta_bstar": 0.0017731974,
        "meta_mean_motion_dot": 5.866e-05,
        "meta_mean_motion_ddot": 0,
        "tle_line1": "1 34304U 93036NA  25347.83059784  .00005866  00000+0  17732-2 0  9996",
        "tle_line2": "2 34304  74.0130 120.5826 0128927 258.1498 229.9614 14.37874626873123"
      },
      "geometry": {
        "type": "Point",
        "coordinates": [
          -53.913714308735706,
          -22.860478596768353
        ]
      }
    },
    {
      "type": "Feature",
      "properties": {
        "norad_id": 34307,
        "name": "COSMOS 2251 DEB",
        "group": "cosmos-2251-debris",
        "lat": -30.613558106487904,
        "lon": 139.85358125408,
        "alt_km": 958.0612879214059,
        "timestamp": "2025-12-14T14:39:29.763068+00:00",
        "meta_object_name": "COSMOS 2251 DEB",
        "meta_object_id": "1993-036ND",
        "meta_epoch": "2025-12-13T15:27:02.071008",
        "meta_mean_motion": 13.54322102,
        "meta_eccentricity": 0.03920322,
        "meta_inclination": 74.0534,
        "meta_ra_of_asc_node": 311.6647,
        "meta_arg_of_pericenter": 142.4072,
        "meta_mean_anomaly": 32.4171,
        "meta_ephemeris_type": 0,
        "meta_classification_type": "U",
        "meta_norad_cat_id": 34307,
        "meta_element_set_no": 999,
        "meta_rev_at_epoch": 82874,
        "meta_bstar": 0.00082013934,
        "meta_mean_motion_dot": 8.94e-06,
        "meta_mean_motion_ddot": 0,
        "tle_line1": "1 34307U 93036ND  25347.64377397  .00000894  00000+0  82014-3 0  9993",
        "tle_line2": "2 34307  74.0534 311.6647 0392032 142.4072  32.4171 13.54322102828749"
      },
      "geometry": {
        "type": "Point",
        "coordinates": [
          139.85358125408,
          -30.613558106487904
        ]
      }
    },
    {
      "type": "Feature",
      "properties": {
        "norad_id": 34313,
        "name": "COSMOS 2251 DEB",
        "group": "cosmos-2251-debris",
        "lat": 24.112767214472964,
        "lon": -51.046618844134464,
        "alt_km": 501.70223446291493,
        "timestamp": "2025-12-14T14:39:29.763078+00:00",
        "meta_object_name": "COSMOS 2251 DEB",
        "meta_object_id": "1993-036NK",
        "meta_epoch": "2025-12-13T22:44:45.155904",
        "meta_mean_motion": 15.19377114,
        "meta_eccentricity": 0.00113819,
        "meta_inclination": 73.9724,
        "meta_ra_of_asc_node": 302.9541,
        "meta_arg_of_pericenter": 79.2822,
        "meta_mean_anomaly": 280.9655,
        "meta_ephemeris_type": 0,
        "meta_classification_type": "U",
        "meta_norad_cat_id": 34313,
        "meta_element_set_no": 999,
        "meta_rev_at_epoch": 89083,
        "meta_bstar": 0.0042114872,
        "meta_mean_motion_dot": 0.00090349,
        "meta_mean_motion_ddot": 0,
        "tle_line1": "1 34313U 93036NK  25347.94774486  .00090349  00000+0  42115-2 0  9994",
        "tle_line2": "2 34313  73.9724 302.9541 0011381  79.2822 280.9655 15.19377114890838"
      },
      "geometry": {
        "type": "Point",
        "coordinates": [
          -51.046618844134464,
          24.112767214472964
        ]
      }
    }
  ]
}